STARLINK-32284          
1 61005U 24158R   26068.38632596  .00002010  00000+0  79951-4 0  9993
2 61005  53.1607  67.0254 0001286  90.1421 269.9727 15.30206996 85538
BANDWAGON-2 OBJECT D    
1 62380U 24247D   26068.52261193  .00011259  00000+0  40119-3 0  9994
2 62380  44.9954 115.6710 0003488 351.1453   8.9368 15.29076102 67732
